NORAD_CAT_ID,OBJECT_NAME,OBJECT_TYPE,EPOCH,MEAN_MOTION,ECCENTRICITY,INCLINATION,RA_OF_ASC_NODE,ARG_OF_PERICENTER,MEAN_ANOMALY,BSTAR,MEAN_MOTION_DOT,MEAN_MOTION_DDOT,TLE_LINE0,TLE_LINE1,TLE_LINE2,SEMIMAJOR_AXIS,PERIOD,APOGEE,PERIGEE,DECAYED
52092.0,STARLINK-3716,PAYLOAD,2022-06-01 20:00:01,15.08808921,0.0001864,53.2148,150.0669,49.9144,32.4314,0.0024292,0.00038552,0.0,0 STARLINK-3716,1 52092U 22029E   22152.83334491  .00038552  00000-0  24292-2 0  9994,2 52092  53.2148 150.0669 0001864  49.9144  32.4314 15.08808921  1303,6917.975,95.44,541.13,538.5509999999998,0.0
52092.0,STARLINK-3716,PAYLOAD,2022-06-02 16:18:14,15.0882659,0.0001949,53.2158,146.2699,49.5098,310.6064,6.9559e-05,8.19e-06,0.0,0 STARLINK-3716,1 52092U 22029E   22153.67934022  .00000819  00000-0  69559-4 0  9995,2 52092  53.2158 146.2699 0001949  49.5098 310.6064 15.08826590 12927,6917.920999999999,95.438,541.135,538.438,0.0
52092.0,STARLINK-3716,PAYLOAD,2022-06-03 09:47:29,15.08831538,0.0001992,53.2158,142.9988,50.6141,309.5027,6.9094e-05,8.11e-06,0.0,0 STARLINK-3716,1 52092U 22029E   22154.40798226  .00000811  00000-0  69094-4 0  9997,2 52092  53.2158 142.9988 0001992  50.6141 309.5027 15.08831538 13038,6917.906,95.438,541.149,538.393,0.0
52092.0,STARLINK-3716,PAYLOAD,2022-06-04 03:16:44,15.08835677,0.0002012,53.216,139.7279,51.8778,308.2396,6.5286e-05,7.51e-06,0.0,0 STARLINK-3716,1 52092U 22029E   22155.13662258  .00000751  00000-0  65286-4 0  9995,2 52092  53.2160 139.7279 0002012  51.8778 308.2396 15.08835677 13146,6917.894,95.438,541.15,538.367,0.0
52092.0,STARLINK-3716,PAYLOAD,2022-06-04 11:13:39,15.08838729,0.0002038,53.216,138.2409,52.1852,307.9324,7.4442e-05,8.97e-06,0.0,0 STARLINK-3716,1 52092U 22029E   22155.46782107  .00000897  00000-0  74442-4 0  9992,2 52092  53.2160 138.2409 0002038  52.1852 307.9324 15.08838729 13193,6917.884,95.438,541.159,538.339,0.0
52092.0,STARLINK-3716,PAYLOAD,2022-06-05 22:00:00,15.08846069,0.0002154,53.215,131.7364,58.0382,256.3415,0.0016347999999999,0.0002583,0.0,0 STARLINK-3716,1 52092U 22029E   22156.91667824  .00025830  00000-0  16348-2 0  9994,2 52092  53.2150 131.7364 0002154  58.0382 256.3415 15.08846069 13400,6917.861999999999,95.437,541.217,538.237,0.0
52092.0,STARLINK-3716,PAYLOAD,2022-06-06 14:00:01,15.08877089,0.0002275,53.215,128.7445,53.4585,284.1457,-0.0022241,-0.00035548,0.0,0 STARLINK-3716,1 52092U 22029E   22157.58334491 -.00035548  00000-0 -22241-2 0  9997,2 52092  53.2150 128.7445 0002275  53.4585 284.1457 15.08877089 13506,6917.767,95.435,541.206,538.058,0.0
52092.0,STARLINK-3716,PAYLOAD,2022-06-06 22:00:00,15.08869924,0.00022,53.2154,127.2472,58.0333,291.1954,-0.0015213,-0.00024439,0.0,0 STARLINK-3716,1 52092U 22029E   22157.91667824 -.00024439  00000-0 -15213-2 0  9991,2 52092  53.2154 127.2472 0002200  58.0333 291.1954 15.08869924  1308,6917.7890000000025,95.436,541.1759999999998,538.132,0.0
52092.0,STARLINK-3716,PAYLOAD,2022-06-07 06:00:00,15.08836059,0.000235,53.2154,125.7526,52.9299,307.9261,0.00074973,0.00011663,0.0,0 STARLINK-3716,1 52092U 22029E   22158.25001157  .00011663  00000-0  74973-3 0  9992,2 52092  53.2154 125.7526 0002350  52.9299 307.9261 15.08836059 13618,6917.892,95.438,541.383,538.132,0.0
52092.0,STARLINK-3716,PAYLOAD,2022-06-07 14:00:01,15.0886116,0.0002258,53.2153,124.255,53.6582,318.7875,-0.001956,-0.00031302,0.0,0 STARLINK-3716,1 52092U 22029E   22158.58334491 -.00031302  00000-0 -19560-2 0  9992,2 52092  53.2153 124.2550 0002258  53.6582 318.7875 15.08861160  1303,6917.816,95.436,541.243,538.119,0.0
52092.0,STARLINK-3716,PAYLOAD,2022-06-07 22:00:00,15.08866438,0.0002173,53.2157,122.7579,57.971,326.083,-0.0015162,-0.00024356,0.0,0 STARLINK-3716,1 52092U 22029E   22158.91667824 -.00024356  00000-0 -15162-2 0  9993,2 52092  53.2157 122.7579 0002173  57.9710 326.0830 15.08866438  1303,6917.8,95.436,541.168,538.161,0.0
52092.0,STARLINK-3716,PAYLOAD,2022-06-08 06:00:02,15.08820888,0.00023,53.2156,121.2632,52.5736,343.1631,0.0010899,0.00017091,0.0,0 STARLINK-3716,1 52092U 22029E   22159.25002315  .00017091  00000-0  10899-2 0  9997,2 52092  53.2156 121.2632 0002300  52.5736 343.1631 15.08820888 13768,6917.939,95.439,541.395,538.2130000000002,0.0
52092.0,STARLINK-3716,PAYLOAD,2022-06-08 14:00:01,15.08848419,0.0002195,53.2155,119.7655,54.4716,352.7812,-0.0015919,-0.00025541,0.0,0 STARLINK-3716,1 52092U 22029E   22159.58334491 -.00025541  00000-0 -15919-2 0  9995,2 52092  53.2155 119.7655 0002195  54.4716 352.7812 15.08848419  1309,6917.855,95.437,541.238,538.201,0.0
52092.0,STARLINK-3716,PAYLOAD,2022-06-08 22:00:01,15.08843361,0.0002149,53.2158,118.2686,58.7898,0.1154,0.00061103,9.451e-05,0.0,0 STARLINK-3716,1 52092U 22029E   22159.91668981  .00009451  00000-0  61103-3 0  9993,2 52092  53.2158 118.2686 0002149  58.7898   0.1154 15.08843361  1301,6917.87,95.437,541.222,538.248,0.0
52092.0,STARLINK-3716,PAYLOAD,2022-06-09 14:00:01,15.08836584,0.0002107,53.2155,115.276,55.5841,26.4614,-0.0018741,-0.00029989,0.0,0 STARLINK-3716,1 52092U 22029E   22160.58334491 -.00029989  00000-0 -18741-2 0  9993,2 52092  53.2155 115.2760 0002107  55.5841  26.4614 15.08836584  1306,6917.891,95.438,541.2130000000002,538.298,0.0
52092.0,STARLINK-3716,PAYLOAD,2022-06-09 22:00:00,15.08835849,0.0002071,53.2157,113.7793,59.5035,34.1196,0.00014323,1.992e-05,0.0,0 STARLINK-3716,1 52092U 22029E   22160.91667824  .00001992  00000-0  14323-3 0  9994,2 52092  53.2157 113.7793 0002071  59.5035  34.1196 15.08835849  1300,6917.893,95.438,541.191,538.325,0.0
52092.0,STARLINK-3716,PAYLOAD,2022-06-10 00:00:00,15.08846319,0.0002099,53.2157,113.4058,58.1881,128.3301,-0.0014567,-0.00023401,0.0,0 STARLINK-3716,1 52092U 22029E   22161.00001157 -.00023401  00000-0 -14567-2 0  9996,2 52092  53.2157 113.4058 0002099  58.1881 128.3301 15.08846319 14026,6917.861,95.437,541.178,538.274,0.0
52092.0,STARLINK-3716,PAYLOAD,2022-06-10 14:00:01,15.08842732,0.0002093,53.2153,110.7863,58.2538,58.5449,-0.00083426,-0.00013542,0.0,0 STARLINK-3716,1 52092U 22029E   22161.58334491 -.00013542  00000-0 -83426-3 0  9995,2 52092  53.2153 110.7863 0002093  58.2538  58.5449 15.08842732  1309,6917.871999999999,95.437,541.185,538.289,0.0
52092.0,STARLINK-3716,PAYLOAD,2022-06-10 22:00:00,15.08854328,0.0002095,53.2155,109.2897,62.0195,66.3709,-0.00026913,-4.571e-05,0.0,0 STARLINK-3716,1 52092U 22029E   22161.91667824 -.00004571  00000-0 -26913-3 0  9991,2 52092  53.2155 109.2897 0002095  62.0195  66.3709 15.08854328 14163,6917.837,95.437,541.151,538.252,0.0
52092.0,STARLINK-3716,PAYLOAD,2022-06-11 22:00:00,15.08846648,0.0002052,53.2154,104.8006,62.6742,100.5124,-0.00051099,-8.413e-05,0.0,0 STARLINK-3716,1 52092U 22029E   22162.91667824 -.00008413  00000-0 -51099-3 0  9994,2 52092  53.2154 104.8006 0002052  62.6742 100.5124 15.08846648  1302,6917.86,95.437,541.145,538.306,0.0
52092.0,STARLINK-3716,PAYLOAD,2022-06-12 06:00:02,15.08817724,0.0002168,53.2153,103.3057,56.6046,118.2473,0.0029684,0.00047243,0.0,0 STARLINK-3716,1 52092U 22029E   22163.25002315  .00047243  00000-0  29684-2 0  9996,2 52092  53.2153 103.3057 0002168  56.6046 118.2473 15.08817724 14365,6917.948,95.439,541.313,538.314,0.0
52092.0,STARLINK-3716,PAYLOAD,2022-06-12 14:00:01,15.08850667,0.0002029,53.2153,101.8077,60.5598,125.8195,-0.00094351,-0.00015278,0.0,0 STARLINK-3716,1 52092U 22029E   22163.58334491 -.00015278  00000-0 -94351-3 0  9994,2 52092  53.2153 101.8077 0002029  60.5598 125.8195 15.08850667  1300,6917.848000000001,95.437,541.116,538.309,0.0
52092.0,STARLINK-3716,PAYLOAD,2022-06-12 22:00:00,15.08850428,0.0002036,53.2156,100.3115,62.4147,135.567,-0.001756,-0.00028135,0.0,0 STARLINK-3716,1 52092U 22029E   22163.91667824 -.00028135  00000-0 -17560-2 0  9992,2 52092  53.2156 100.3115 0002036  62.4147 135.5670 15.08850428 14461,6917.849,95.437,541.122,538.305,0.0
52092.0,STARLINK-3716,PAYLOAD,2022-06-13 14:00:01,15.08847893,0.0001978,53.2159,97.3185,60.0236,161.156,-0.00024152,-4.131e-05,0.0,0 STARLINK-3716,1 52092U 22029E   22164.58334491 -.00004131  00000-0 -24152-3 0  9993,2 52092  53.2159  97.3185 0001978  60.0236 161.1560 15.08847893 14569,6917.856,95.437,541.09,538.3530000000002,0.0
52092.0,STARLINK-3716,PAYLOAD,2022-06-13 22:00:00,15.08856676,0.000198,53.2162,95.8226,61.5236,171.2633,-0.0016004,-0.0002568,0.0,0 STARLINK-3716,1 52092U 22029E   22164.91667824 -.00025680  00000-0 -16004-2 0  9997,2 52092  53.2162  95.8226 0001980  61.5236 171.2633 15.08856676  1301,6917.829000000002,95.436,541.064,538.325,0.0
52092.0,STARLINK-3716,PAYLOAD,2022-06-14 14:00:01,15.08819374,0.0001832,53.2167,92.8296,58.4818,197.4992,0.0014952,0.00023575,0.0,0 STARLINK-3716,1 52092U 22029E   22165.58334491  .00023575  00000-0  14952-2 0  9991,2 52092  53.2167  92.8296 0001832  58.4818 197.4992 15.08819374  1309,6917.943,95.439,541.076,538.5409999999998,0.0
52092.0,STARLINK-3716,PAYLOAD,2022-06-14 22:00:00,15.08842027,0.0001869,53.2169,91.3338,58.7798,208.7682,-0.0026462,-0.00042159,0.0,0 STARLINK-3716,1 52092U 22029E   22165.91667824 -.00042159  00000-0 -26462-2 0  9997,2 52092  53.2169  91.3338 0001869  58.7798 208.7682 15.08842027 14769,6917.874,95.437,541.0319999999998,538.446,0.0
52092.0,STARLINK-3716,PAYLOAD,2022-06-15 14:00:01,15.0881297,0.000182,53.2172,88.3409,58.2649,232.4405,0.0022087,0.00035013,0.0,0 STARLINK-3716,1 52092U 22029E   22166.58334491  .00035013  00000-0  22087-2 0  9990,2 52092  53.2172  88.3409 0001820  58.2649 232.4405 15.08812970 14867,6917.9630000000025,95.439,541.087,538.569,0.0
52092.0,STARLINK-3716,PAYLOAD,2022-06-15 22:00:00,15.08863022,0.0001844,53.2173,86.8452,59.0982,243.1858,-0.0012579,-0.00020265,0.0,0 STARLINK-3716,1 52092U 22029E   22166.91667824 -.00020265  00000-0 -12579-2 0  9996,2 52092  53.2173  86.8452 0001844  59.0982 243.1858 15.08863022  1304,6917.81,95.436,540.951,538.399,0.0
